{"type":"FeatureCollection","features":[{"type":"Feature","properties":{"zh":"斐济"},"geometry":{"type":"Point","coordinates":[177.98,-17.83]}},{"type":"Feature","properties":{"zh":"坦桑尼亚"},"geometry":{"type":"Point","coordinates":[34.96,-6.05]}},{"type":"Feature","properties":{"zh":"西撒哈拉"},"geometry":{"type":"Point","coordinates":[-12.63,23.97]}},{"type":"Feature","properties":{"zh":"加拿大"},"geometry":{"type":"Point","coordinates":[-101.91,60.32]}},{"type":"Feature","properties":{"zh":"美国"},"geometry":{"type":"Point","coordinates":[-97.48,39.54]}},{"type":"Feature","properties":{"zh":"哈萨克斯坦"},"geometry":{"type":"Point","coordinates":[68.69,49.05]}},{"type":"Feature","properties":{"zh":"乌兹别克斯坦"},"geometry":{"type":"Point","coordinates":[64.01,41.69]}},{"type":"Feature","properties":{"zh":"巴布亚新几内亚"},"geometry":{"type":"Point","coordinates":[143.91,-5.7]}},{"type":"Feature","properties":{"zh":"印度尼西亚"},"geometry":{"type":"Point","coordinates":[101.89,-0.95]}},{"type":"Feature","properties":{"zh":"阿根廷"},"geometry":{"type":"Point","coordinates":[-64.17,-33.5]}},{"type":"Feature","properties":{"zh":"智利"},"geometry":{"type":"Point","coordinates":[-72.32,-38.15]}},{"type":"Feature","properties":{"zh":"刚果民主共和国"},"geometry":{"type":"Point","coordinates":[23.46,-1.86]}},{"type":"Feature","properties":{"zh":"索马里"},"geometry":{"type":"Point","coordinates":[45.19,3.57]}},{"type":"Feature","properties":{"zh":"肯尼亚"},"geometry":{"type":"Point","coordinates":[37.91,0.55]}},{"type":"Feature","properties":{"zh":"苏丹"},"geometry":{"type":"Point","coordinates":[29.26,16.33]}},{"type":"Feature","properties":{"zh":"乍得"},"geometry":{"type":"Point","coordinates":[18.65,15.14]}},{"type":"Feature","properties":{"zh":"海地"},"geometry":{"type":"Point","coordinates":[-72.22,19.26]}},{"type":"Feature","properties":{"zh":"多米尼加"},"geometry":{"type":"Point","coordinates":[-70.65,19.1]}},{"type":"Feature","properties":{"zh":"俄罗斯"},"geometry":{"type":"Point","coordinates":[44.69,58.25]}},{"type":"Feature","properties":{"zh":"巴哈马"},"geometry":{"type":"Point","coordinates":[-77.15,26.4]}},{"type":"Feature","properties":{"zh":"福克兰群岛"},"geometry":{"type":"Point","coordinates":[-58.74,-51.61]}},{"type":"Feature","properties":{"zh":"挪威"},"geometry":{"type":"Point","coordinates":[9.68,61.36]}},{"type":"Feature","properties":{"zh":"格陵兰"},"geometry":{"type":"Point","coordinates":[-39.34,74.32]}},{"type":"Feature","properties":{"zh":"法属南部和南极领地"},"geometry":{"type":"Point","coordinates":[69.12,-49.3]}},{"type":"Feature","properties":{"zh":"东帝汶"},"geometry":{"type":"Point","coordinates":[125.85,-8.8]}},{"type":"Feature","properties":{"zh":"南非"},"geometry":{"type":"Point","coordinates":[23.67,-29.71]}},{"type":"Feature","properties":{"zh":"莱索托"},"geometry":{"type":"Point","coordinates":[28.25,-29.48]}},{"type":"Feature","properties":{"zh":"墨西哥"},"geometry":{"type":"Point","coordinates":[-102.29,23.92]}},{"type":"Feature","properties":{"zh":"乌拉圭"},"geometry":{"type":"Point","coordinates":[-55.97,-32.96]}},{"type":"Feature","properties":{"zh":"巴西"},"geometry":{"type":"Point","coordinates":[-49.56,-12.1]}},{"type":"Feature","properties":{"zh":"玻利维亚"},"geometry":{"type":"Point","coordinates":[-64.59,-16.67]}},{"type":"Feature","properties":{"zh":"秘鲁"},"geometry":{"type":"Point","coordinates":[-72.9,-12.98]}},{"type":"Feature","properties":{"zh":"哥伦比亚"},"geometry":{"type":"Point","coordinates":[-73.17,3.37]}},{"type":"Feature","properties":{"zh":"巴拿马"},"geometry":{"type":"Point","coordinates":[-80.35,8.72]}},{"type":"Feature","properties":{"zh":"哥斯达黎加"},"geometry":{"type":"Point","coordinates":[-84.08,10.07]}},{"type":"Feature","properties":{"zh":"尼加拉瓜"},"geometry":{"type":"Point","coordinates":[-85.07,12.67]}},{"type":"Feature","properties":{"zh":"洪都拉斯"},"geometry":{"type":"Point","coordinates":[-86.89,14.79]}},{"type":"Feature","properties":{"zh":"萨尔瓦多"},"geometry":{"type":"Point","coordinates":[-88.89,13.69]}},{"type":"Feature","properties":{"zh":"危地马拉"},"geometry":{"type":"Point","coordinates":[-90.5,14.98]}},{"type":"Feature","properties":{"zh":"伯利兹"},"geometry":{"type":"Point","coordinates":[-88.71,17.2]}},{"type":"Feature","properties":{"zh":"委内瑞拉"},"geometry":{"type":"Point","coordinates":[-64.6,7.18]}},{"type":"Feature","properties":{"zh":"圭亚那"},"geometry":{"type":"Point","coordinates":[-58.94,5.12]}},{"type":"Feature","properties":{"zh":"苏里南"},"geometry":{"type":"Point","coordinates":[-55.91,4.14]}},{"type":"Feature","properties":{"zh":"法国"},"geometry":{"type":"Point","coordinates":[2.55,46.7]}},{"type":"Feature","properties":{"zh":"厄瓜多尔"},"geometry":{"type":"Point","coordinates":[-78.19,-1.26]}},{"type":"Feature","properties":{"zh":"波多黎各"},"geometry":{"type":"Point","coordinates":[-66.48,18.23]}},{"type":"Feature","properties":{"zh":"牙买加"},"geometry":{"type":"Point","coordinates":[-77.32,18.14]}},{"type":"Feature","properties":{"zh":"古巴"},"geometry":{"type":"Point","coordinates":[-77.98,21.33]}},{"type":"Feature","properties":{"zh":"津巴布韦"},"geometry":{"type":"Point","coordinates":[29.93,-18.91]}},{"type":"Feature","properties":{"zh":"博茨瓦纳"},"geometry":{"type":"Point","coordinates":[24.18,-22.1]}},{"type":"Feature","properties":{"zh":"纳米比亚"},"geometry":{"type":"Point","coordinates":[17.11,-20.58]}},{"type":"Feature","properties":{"zh":"塞内加尔"},"geometry":{"type":"Point","coordinates":[-14.78,15.14]}},{"type":"Feature","properties":{"zh":"马里"},"geometry":{"type":"Point","coordinates":[-2.04,18.69]}},{"type":"Feature","properties":{"zh":"毛里塔尼亚"},"geometry":{"type":"Point","coordinates":[-9.74,19.59]}},{"type":"Feature","properties":{"zh":"贝宁"},"geometry":{"type":"Point","coordinates":[2.35,10.32]}},{"type":"Feature","properties":{"zh":"尼日尔"},"geometry":{"type":"Point","coordinates":[9.5,17.45]}},{"type":"Feature","properties":{"zh":"尼日利亚"},"geometry":{"type":"Point","coordinates":[7.5,9.44]}},{"type":"Feature","properties":{"zh":"喀麦隆"},"geometry":{"type":"Point","coordinates":[12.47,4.59]}},{"type":"Feature","properties":{"zh":"多哥"},"geometry":{"type":"Point","coordinates":[1.06,8.81]}},{"type":"Feature","properties":{"zh":"加纳"},"geometry":{"type":"Point","coordinates":[-1.04,7.72]}},{"type":"Feature","properties":{"zh":"科特迪瓦"},"geometry":{"type":"Point","coordinates":[-5.57,7.49]}},{"type":"Feature","properties":{"zh":"几内亚"},"geometry":{"type":"Point","coordinates":[-10.02,10.62]}},{"type":"Feature","properties":{"zh":"几内亚比绍"},"geometry":{"type":"Point","coordinates":[-14.52,12.16]}},{"type":"Feature","properties":{"zh":"利比里亚"},"geometry":{"type":"Point","coordinates":[-9.46,6.45]}},{"type":"Feature","properties":{"zh":"塞拉利昂"},"geometry":{"type":"Point","coordinates":[-11.76,8.62]}},{"type":"Feature","properties":{"zh":"布基纳法索"},"geometry":{"type":"Point","coordinates":[-1.36,12.67]}},{"type":"Feature","properties":{"zh":"中非共和国"},"geometry":{"type":"Point","coordinates":[20.91,6.99]}},{"type":"Feature","properties":{"zh":"刚果共和国"},"geometry":{"type":"Point","coordinates":[15.9,0.14]}},{"type":"Feature","properties":{"zh":"加蓬"},"geometry":{"type":"Point","coordinates":[11.84,-0.44]}},{"type":"Feature","properties":{"zh":"赤道几内亚"},"geometry":{"type":"Point","coordinates":[8.99,2.33]}},{"type":"Feature","properties":{"zh":"赞比亚"},"geometry":{"type":"Point","coordinates":[26.4,-14.66]}},{"type":"Feature","properties":{"zh":"马拉维"},"geometry":{"type":"Point","coordinates":[33.61,-13.39]}},{"type":"Feature","properties":{"zh":"莫桑比克"},"geometry":{"type":"Point","coordinates":[37.84,-13.94]}},{"type":"Feature","properties":{"zh":"斯威士兰"},"geometry":{"type":"Point","coordinates":[31.47,-26.53]}},{"type":"Feature","properties":{"zh":"安哥拉"},"geometry":{"type":"Point","coordinates":[17.98,-12.18]}},{"type":"Feature","properties":{"zh":"布隆迪"},"geometry":{"type":"Point","coordinates":[29.92,-3.33]}},{"type":"Feature","properties":{"zh":"以色列"},"geometry":{"type":"Point","coordinates":[34.85,30.91]}},{"type":"Feature","properties":{"zh":"黎巴嫩"},"geometry":{"type":"Point","coordinates":[35.99,34.13]}},{"type":"Feature","properties":{"zh":"马达加斯加"},"geometry":{"type":"Point","coordinates":[46.7,-18.63]}},{"type":"Feature","properties":{"zh":"巴勒斯坦"},"geometry":{"type":"Point","coordinates":[35.29,32.05]}},{"type":"Feature","properties":{"zh":"冈比亚"},"geometry":{"type":"Point","coordinates":[-15.0,13.64]}},{"type":"Feature","properties":{"zh":"突尼斯"},"geometry":{"type":"Point","coordinates":[9.01,33.69]}},{"type":"Feature","properties":{"zh":"阿尔及利亚"},"geometry":{"type":"Point","coordinates":[2.81,27.4]}},{"type":"Feature","properties":{"zh":"约旦"},"geometry":{"type":"Point","coordinates":[36.38,30.81]}},{"type":"Feature","properties":{"zh":"阿拉伯联合酋长国"},"geometry":{"type":"Point","coordinates":[54.55,23.47]}},{"type":"Feature","properties":{"zh":"卡塔尔"},"geometry":{"type":"Point","coordinates":[51.14,25.24]}},{"type":"Feature","properties":{"zh":"科威特"},"geometry":{"type":"Point","coordinates":[47.31,29.41]}},{"type":"Feature","properties":{"zh":"伊拉克"},"geometry":{"type":"Point","coordinates":[43.26,33.09]}},{"type":"Feature","properties":{"zh":"阿曼"},"geometry":{"type":"Point","coordinates":[57.34,22.12]}},{"type":"Feature","properties":{"zh":"瓦努阿图"},"geometry":{"type":"Point","coordinates":[166.91,-15.37]}},{"type":"Feature","properties":{"zh":"柬埔寨"},"geometry":{"type":"Point","coordinates":[104.5,12.65]}},{"type":"Feature","properties":{"zh":"泰国"},"geometry":{"type":"Point","coordinates":[101.07,15.46]}},{"type":"Feature","properties":{"zh":"老挝"},"geometry":{"type":"Point","coordinates":[102.53,19.43]}},{"type":"Feature","properties":{"zh":"缅甸"},"geometry":{"type":"Point","coordinates":[95.8,21.57]}},{"type":"Feature","properties":{"zh":"越南"},"geometry":{"type":"Point","coordinates":[105.39,21.72]}},{"type":"Feature","properties":{"zh":"朝鲜民主主义人民共和国"},"geometry":{"type":"Point","coordinates":[126.44,39.89]}},{"type":"Feature","properties":{"zh":"大韩民国"},"geometry":{"type":"Point","coordinates":[128.13,36.38]}},{"type":"Feature","properties":{"zh":"蒙古国"},"geometry":{"type":"Point","coordinates":[104.15,46.0]}},{"type":"Feature","properties":{"zh":"印度"},"geometry":{"type":"Point","coordinates":[79.36,22.69]}},{"type":"Feature","properties":{"zh":"孟加拉国"},"geometry":{"type":"Point","coordinates":[89.68,24.21]}},{"type":"Feature","properties":{"zh":"不丹"},"geometry":{"type":"Point","coordinates":[90.04,27.54]}},{"type":"Feature","properties":{"zh":"尼泊尔"},"geometry":{"type":"Point","coordinates":[83.64,28.3]}},{"type":"Feature","properties":{"zh":"巴基斯坦"},"geometry":{"type":"Point","coordinates":[68.55,29.33]}},{"type":"Feature","properties":{"zh":"阿富汗"},"geometry":{"type":"Point","coordinates":[66.5,34.16]}},{"type":"Feature","properties":{"zh":"塔吉克斯坦"},"geometry":{"type":"Point","coordinates":[72.59,38.2]}},{"type":"Feature","properties":{"zh":"吉尔吉斯斯坦"},"geometry":{"type":"Point","coordinates":[74.53,41.67]}},{"type":"Feature","properties":{"zh":"土库曼斯坦"},"geometry":{"type":"Point","coordinates":[58.68,39.86]}},{"type":"Feature","properties":{"zh":"伊朗"},"geometry":{"type":"Point","coordinates":[54.93,32.17]}},{"type":"Feature","properties":{"zh":"叙利亚"},"geometry":{"type":"Point","coordinates":[38.28,35.01]}},{"type":"Feature","properties":{"zh":"亚美尼亚"},"geometry":{"type":"Point","coordinates":[44.8,40.46]}},{"type":"Feature","properties":{"zh":"瑞典"},"geometry":{"type":"Point","coordinates":[19.02,65.86]}},{"type":"Feature","properties":{"zh":"白俄罗斯"},"geometry":{"type":"Point","coordinates":[28.42,53.82]}},{"type":"Feature","properties":{"zh":"乌克兰"},"geometry":{"type":"Point","coordinates":[32.14,49.72]}},{"type":"Feature","properties":{"zh":"波兰"},"geometry":{"type":"Point","coordinates":[19.49,51.99]}},{"type":"Feature","properties":{"zh":"奥地利"},"geometry":{"type":"Point","coordinates":[14.13,47.52]}},{"type":"Feature","properties":{"zh":"匈牙利"},"geometry":{"type":"Point","coordinates":[19.45,47.09]}},{"type":"Feature","properties":{"zh":"摩尔多瓦"},"geometry":{"type":"Point","coordinates":[28.49,47.43]}},{"type":"Feature","properties":{"zh":"罗马尼亚"},"geometry":{"type":"Point","coordinates":[24.97,45.73]}},{"type":"Feature","properties":{"zh":"立陶宛"},"geometry":{"type":"Point","coordinates":[24.09,55.1]}},{"type":"Feature","properties":{"zh":"拉脱维亚"},"geometry":{"type":"Point","coordinates":[25.46,57.07]}},{"type":"Feature","properties":{"zh":"爱沙尼亚"},"geometry":{"type":"Point","coordinates":[25.87,58.72]}},{"type":"Feature","properties":{"zh":"德国"},"geometry":{"type":"Point","coordinates":[9.68,50.96]}},{"type":"Feature","properties":{"zh":"保加利亚"},"geometry":{"type":"Point","coordinates":[25.16,42.51]}},{"type":"Feature","properties":{"zh":"希腊"},"geometry":{"type":"Point","coordinates":[21.73,39.49]}},{"type":"Feature","properties":{"zh":"土耳其"},"geometry":{"type":"Point","coordinates":[34.51,39.35]}},{"type":"Feature","properties":{"zh":"阿尔巴尼亚"},"geometry":{"type":"Point","coordinates":[20.11,40.65]}},{"type":"Feature","properties":{"zh":"克罗地亚"},"geometry":{"type":"Point","coordinates":[16.37,45.81]}},{"type":"Feature","properties":{"zh":"瑞士"},"geometry":{"type":"Point","coordinates":[7.46,46.72]}},{"type":"Feature","properties":{"zh":"卢森堡"},"geometry":{"type":"Point","coordinates":[6.08,49.73]}},{"type":"Feature","properties":{"zh":"比利时"},"geometry":{"type":"Point","coordinates":[4.8,50.79]}},{"type":"Feature","properties":{"zh":"荷兰"},"geometry":{"type":"Point","coordinates":[5.61,52.42]}},{"type":"Feature","properties":{"zh":"葡萄牙"},"geometry":{"type":"Point","coordinates":[-8.27,39.61]}},{"type":"Feature","properties":{"zh":"西班牙"},"geometry":{"type":"Point","coordinates":[-3.46,40.09]}},{"type":"Feature","properties":{"zh":"爱尔兰"},"geometry":{"type":"Point","coordinates":[-7.8,53.08]}},{"type":"Feature","properties":{"zh":"新喀里多尼亚"},"geometry":{"type":"Point","coordinates":[165.08,-21.06]}},{"type":"Feature","properties":{"zh":"所罗门群岛"},"geometry":{"type":"Point","coordinates":[159.17,-8.03]}},{"type":"Feature","properties":{"zh":"新西兰"},"geometry":{"type":"Point","coordinates":[172.79,-39.76]}},{"type":"Feature","properties":{"zh":"澳大利亚"},"geometry":{"type":"Point","coordinates":[134.05,-24.13]}},{"type":"Feature","properties":{"zh":"斯里兰卡"},"geometry":{"type":"Point","coordinates":[80.7,7.58]}},{"type":"Feature","properties":{"zh":"中华人民共和国"},"geometry":{"type":"Point","coordinates":[106.34,32.5]}},{"type":"Feature","properties":{"zh":"中华民国"},"geometry":{"type":"Point","coordinates":[120.87,23.65]}},{"type":"Feature","properties":{"zh":"意大利"},"geometry":{"type":"Point","coordinates":[11.08,44.73]}},{"type":"Feature","properties":{"zh":"丹麦"},"geometry":{"type":"Point","coordinates":[9.02,55.97]}},{"type":"Feature","properties":{"zh":"英国"},"geometry":{"type":"Point","coordinates":[-2.12,54.4]}},{"type":"Feature","properties":{"zh":"冰岛"},"geometry":{"type":"Point","coordinates":[-18.67,64.78]}},{"type":"Feature","properties":{"zh":"阿塞拜疆"},"geometry":{"type":"Point","coordinates":[47.21,40.4]}},{"type":"Feature","properties":{"zh":"格鲁吉亚"},"geometry":{"type":"Point","coordinates":[43.74,41.87]}},{"type":"Feature","properties":{"zh":"菲律宾"},"geometry":{"type":"Point","coordinates":[122.47,11.2]}},{"type":"Feature","properties":{"zh":"马来西亚"},"geometry":{"type":"Point","coordinates":[113.84,2.53]}},{"type":"Feature","properties":{"zh":"文莱"},"geometry":{"type":"Point","coordinates":[114.55,4.45]}},{"type":"Feature","properties":{"zh":"斯洛文尼亚"},"geometry":{"type":"Point","coordinates":[14.92,46.06]}},{"type":"Feature","properties":{"zh":"芬兰"},"geometry":{"type":"Point","coordinates":[27.28,63.25]}},{"type":"Feature","properties":{"zh":"斯洛伐克"},"geometry":{"type":"Point","coordinates":[19.05,48.73]}},{"type":"Feature","properties":{"zh":"捷克"},"geometry":{"type":"Point","coordinates":[15.38,49.88]}},{"type":"Feature","properties":{"zh":"厄立特里亚"},"geometry":{"type":"Point","coordinates":[38.29,15.79]}},{"type":"Feature","properties":{"zh":"日本"},"geometry":{"type":"Point","coordinates":[138.44,36.14]}},{"type":"Feature","properties":{"zh":"巴拉圭"},"geometry":{"type":"Point","coordinates":[-60.15,-21.67]}},{"type":"Feature","properties":{"zh":"也门"},"geometry":{"type":"Point","coordinates":[45.87,15.33]}},{"type":"Feature","properties":{"zh":"沙特阿拉伯"},"geometry":{"type":"Point","coordinates":[44.7,23.81]}},{"type":"Feature","properties":{"zh":"南极洲"},"geometry":{"type":"Point","coordinates":[35.89,-79.84]}},{"type":"Feature","properties":{"zh":"北塞浦路斯土耳其共和国"},"geometry":{"type":"Point","coordinates":[33.69,35.22]}},{"type":"Feature","properties":{"zh":"塞浦路斯"},"geometry":{"type":"Point","coordinates":[33.08,34.91]}},{"type":"Feature","properties":{"zh":"摩洛哥"},"geometry":{"type":"Point","coordinates":[-7.19,31.65]}},{"type":"Feature","properties":{"zh":"埃及"},"geometry":{"type":"Point","coordinates":[29.45,26.19]}},{"type":"Feature","properties":{"zh":"利比亚"},"geometry":{"type":"Point","coordinates":[18.01,26.64]}},{"type":"Feature","properties":{"zh":"埃塞俄比亚"},"geometry":{"type":"Point","coordinates":[39.09,8.03]}},{"type":"Feature","properties":{"zh":"吉布提"},"geometry":{"type":"Point","coordinates":[42.5,11.98]}},{"type":"Feature","properties":{"zh":"索马里兰"},"geometry":{"type":"Point","coordinates":[46.73,9.44]}},{"type":"Feature","properties":{"zh":"乌干达"},"geometry":{"type":"Point","coordinates":[32.95,1.97]}},{"type":"Feature","properties":{"zh":"卢旺达"},"geometry":{"type":"Point","coordinates":[30.1,-1.9]}},{"type":"Feature","properties":{"zh":"波斯尼亚和黑塞哥维那"},"geometry":{"type":"Point","coordinates":[18.07,44.09]}},{"type":"Feature","properties":{"zh":"北马其顿"},"geometry":{"type":"Point","coordinates":[21.56,41.56]}},{"type":"Feature","properties":{"zh":"塞尔维亚"},"geometry":{"type":"Point","coordinates":[20.79,44.19]}},{"type":"Feature","properties":{"zh":"黑山"},"geometry":{"type":"Point","coordinates":[19.14,42.8]}},{"type":"Feature","properties":{"zh":"科索沃"},"geometry":{"type":"Point","coordinates":[20.86,42.59]}},{"type":"Feature","properties":{"zh":"特立尼达和多巴哥"},"geometry":{"type":"Point","coordinates":[-60.92,11.0]}},{"type":"Feature","properties":{"zh":"南苏丹"},"geometry":{"type":"Point","coordinates":[30.39,7.23]}}]}