{"type":"FeatureCollection","features":[{"type":"Feature","properties":{"zh":"斯塔夫罗波尔","ru":"Ставрополь","r":4,"cap":0,"ruflag":1},"geometry":{"type":"Point","coordinates":[41.98,45.05]}},{"type":"Feature","properties":{"zh":"加里宁格勒","ru":"Калининград","r":4,"cap":0,"ruflag":1},"geometry":{"type":"Point","coordinates":[20.5,54.7]}},{"type":"Feature","properties":{"zh":"布良斯克","ru":"Брянск","r":4,"cap":0,"ruflag":1},"geometry":{"type":"Point","coordinates":[34.43,53.26]}},{"type":"Feature","properties":{"zh":"特维尔","ru":"Тверь","r":4,"cap":0,"ruflag":1},"geometry":{"type":"Point","coordinates":[35.89,56.86]}},{"type":"Feature","properties":{"zh":"雅罗斯拉夫尔","ru":"Ярославль","r":4,"cap":0,"ruflag":1},"geometry":{"type":"Point","coordinates":[39.87,57.62]}},{"type":"Feature","properties":{"zh":"顿河畔罗斯托夫","ru":"Ростов-на-Дону","r":4,"cap":0,"ruflag":1},"geometry":{"type":"Point","coordinates":[39.71,47.24]}},{"type":"Feature","properties":{"zh":"克拉斯诺达尔","ru":"Краснодар","r":4,"cap":0,"ruflag":1},"geometry":{"type":"Point","coordinates":[39.0,45.02]}},{"type":"Feature","properties":{"zh":"奔萨","ru":"Пенза","r":4,"cap":0,"ruflag":1},"geometry":{"type":"Point","coordinates":[45.0,53.18]}},{"type":"Feature","properties":{"zh":"梁赞","ru":"Рязань","r":4,"cap":0,"ruflag":1},"geometry":{"type":"Point","coordinates":[39.72,54.62]}},{"type":"Feature","properties":{"zh":"沃罗涅日","ru":"Воронеж","r":4,"cap":0,"ruflag":1},"geometry":{"type":"Point","coordinates":[39.19,51.67]}},{"type":"Feature","properties":{"zh":"马格尼托哥尔斯克","ru":"Магнитогорск","r":4,"cap":0,"ruflag":1},"geometry":{"type":"Point","coordinates":[58.98,53.42]}},{"type":"Feature","properties":{"zh":"车里雅宾斯克","ru":"Челябинск","r":4,"cap":0,"ruflag":1},"geometry":{"type":"Point","coordinates":[61.44,55.16]}},{"type":"Feature","properties":{"zh":"基洛夫","ru":"Киров","r":4,"cap":0,"ruflag":1},"geometry":{"type":"Point","coordinates":[49.67,58.59]}},{"type":"Feature","properties":{"zh":"下塔吉尔","ru":"Нижний Тагил","r":4,"cap":0,"ruflag":1},"geometry":{"type":"Point","coordinates":[59.97,57.92]}},{"type":"Feature","properties":{"zh":"阿斯特拉罕","ru":"Астрахань","r":4,"cap":0,"ruflag":1},"geometry":{"type":"Point","coordinates":[48.05,46.35]}},{"type":"Feature","properties":{"zh":"奥伦堡","ru":"Оренбург","r":4,"cap":0,"ruflag":1},"geometry":{"type":"Point","coordinates":[55.11,51.78]}},{"type":"Feature","properties":{"zh":"萨拉托夫","ru":"Саратов","r":4,"cap":0,"ruflag":1},"geometry":{"type":"Point","coordinates":[46.03,51.58]}},{"type":"Feature","properties":{"zh":"乌里扬诺夫斯克","ru":"Ульяновск","r":4,"cap":0,"ruflag":1},"geometry":{"type":"Point","coordinates":[48.41,54.33]}},{"type":"Feature","properties":{"zh":"鄂木斯克","ru":"Омск","r":4,"cap":0,"ruflag":1},"geometry":{"type":"Point","coordinates":[73.4,54.99]}},{"type":"Feature","properties":{"zh":"秋明","ru":"Тюмень","r":4,"cap":0,"ruflag":1},"geometry":{"type":"Point","coordinates":[65.53,57.14]}},{"type":"Feature","properties":{"zh":"新库兹涅茨克","ru":"Новокузнецк","r":4,"cap":0,"ruflag":1},"geometry":{"type":"Point","coordinates":[87.11,53.75]}},{"type":"Feature","properties":{"zh":"克麦罗沃","ru":"Кемерово","r":4,"cap":0,"ruflag":1},"geometry":{"type":"Point","coordinates":[86.09,55.34]}},{"type":"Feature","properties":{"zh":"乌兰乌德","ru":"Улан-Удэ","r":4,"cap":0,"ruflag":1},"geometry":{"type":"Point","coordinates":[107.62,51.82]}},{"type":"Feature","properties":{"zh":"伯力","ru":"Хабаровск","r":4,"cap":0,"ruflag":1},"geometry":{"type":"Point","coordinates":[135.12,48.45]}},{"type":"Feature","properties":{"zh":"塞瓦斯托波尔","ru":"Севастополь","r":3,"cap":0,"ruflag":1},"geometry":{"type":"Point","coordinates":[33.52,44.6]}},{"type":"Feature","properties":{"zh":"托木斯克","ru":"Томск","r":3,"cap":0,"ruflag":1},"geometry":{"type":"Point","coordinates":[84.98,56.49]}},{"type":"Feature","properties":{"zh":"阿尔汉格尔斯克","ru":"Архангельск","r":3,"cap":0,"ruflag":1},"geometry":{"type":"Point","coordinates":[40.55,64.57]}},{"type":"Feature","properties":{"zh":"下诺夫哥罗德","ru":"Нижний Новгород","r":3,"cap":0,"ruflag":1},"geometry":{"type":"Point","coordinates":[44.0,56.33]}},{"type":"Feature","properties":{"zh":"伏尔加格勒","ru":"Волгоград","r":3,"cap":0,"ruflag":1},"geometry":{"type":"Point","coordinates":[44.5,48.71]}},{"type":"Feature","properties":{"zh":"乌法","ru":"Уфа","r":3,"cap":0,"ruflag":1},"geometry":{"type":"Point","coordinates":[56.04,54.79]}},{"type":"Feature","properties":{"zh":"叶卡捷琳堡","ru":"Екатеринбург","r":3,"cap":0,"ruflag":1},"geometry":{"type":"Point","coordinates":[60.6,56.85]}},{"type":"Feature","properties":{"zh":"萨马拉","ru":"Самара","r":3,"cap":0,"ruflag":1},"geometry":{"type":"Point","coordinates":[50.15,53.2]}},{"type":"Feature","properties":{"zh":"喀山","ru":"Казань","r":3,"cap":0,"ruflag":1},"geometry":{"type":"Point","coordinates":[49.12,55.75]}},{"type":"Feature","properties":{"zh":"苏尔古特","ru":"Сургут","r":3,"cap":0,"ruflag":1},"geometry":{"type":"Point","coordinates":[73.43,61.26]}},{"type":"Feature","properties":{"zh":"巴尔瑙尔","ru":"Барнаул","r":3,"cap":0,"ruflag":1},"geometry":{"type":"Point","coordinates":[83.75,53.35]}},{"type":"Feature","properties":{"zh":"新西伯利亚","ru":"Новосибирск","r":3,"cap":0,"ruflag":1},"geometry":{"type":"Point","coordinates":[82.96,55.03]}},{"type":"Feature","properties":{"zh":"伊尔库茨克","ru":"Иркутск","r":3,"cap":0,"ruflag":1},"geometry":{"type":"Point","coordinates":[104.28,52.28]}},{"type":"Feature","properties":{"zh":"克拉斯诺亚尔斯克","ru":"Красноярск","r":3,"cap":0,"ruflag":1},"geometry":{"type":"Point","coordinates":[92.86,56.02]}},{"type":"Feature","properties":{"zh":"海参崴","ru":"Владивосток","r":3,"cap":0,"ruflag":1},"geometry":{"type":"Point","coordinates":[131.91,43.13]}},{"type":"Feature","properties":{"zh":"彼尔姆","ru":"Пермь","r":3,"cap":0,"ruflag":1},"geometry":{"type":"Point","coordinates":[56.25,58.0]}},{"type":"Feature","properties":{"zh":"圣彼得堡","ru":"Санкт-Петербург","r":2,"cap":0,"ruflag":1},"geometry":{"type":"Point","coordinates":[30.31,59.94]}},{"type":"Feature","properties":{"zh":"莫斯科","ru":"Москва","r":0,"cap":1,"ruflag":1},"geometry":{"type":"Point","coordinates":[37.61,55.75]}},{"type":"Feature","properties":{"zh":"蒙得维的亚","ru":"Монтевидео","r":3,"cap":0,"ruflag":0},"geometry":{"type":"Point","coordinates":[-56.19,-34.91]}},{"type":"Feature","properties":{"zh":"洛美","ru":"Ломе","r":3,"cap":0,"ruflag":0},"geometry":{"type":"Point","coordinates":[1.22,6.13]}},{"type":"Feature","properties":{"zh":"突尼斯","ru":"Тунис","r":3,"cap":0,"ruflag":0},"geometry":{"type":"Point","coordinates":[10.18,36.8]}},{"type":"Feature","properties":{"zh":"阿布扎比","ru":"Абу-Даби","r":3,"cap":0,"ruflag":0},"geometry":{"type":"Point","coordinates":[54.37,24.47]}},{"type":"Feature","properties":{"zh":"阿什哈巴德","ru":"Ашхабад","r":3,"cap":0,"ruflag":0},"geometry":{"type":"Point","coordinates":[58.38,37.95]}},{"type":"Feature","properties":{"zh":"卢萨卡","ru":"Лусака","r":3,"cap":0,"ruflag":0},"geometry":{"type":"Point","coordinates":[28.28,-15.41]}},{"type":"Feature","properties":{"zh":"哈拉雷","ru":"Хараре","r":3,"cap":0,"ruflag":0},"geometry":{"type":"Point","coordinates":[31.04,-17.82]}},{"type":"Feature","properties":{"zh":"帝力","ru":"Дили","r":3,"cap":0,"ruflag":0},"geometry":{"type":"Point","coordinates":[125.58,-8.56]}},{"type":"Feature","properties":{"zh":"维拉港","ru":"Порт-Вила","r":3,"cap":0,"ruflag":0},"geometry":{"type":"Point","coordinates":[168.32,-17.73]}},{"type":"Feature","properties":{"zh":"特古西加尔巴","ru":"Тегусигальпа","r":3,"cap":0,"ruflag":0},"geometry":{"type":"Point","coordinates":[-87.22,14.1]}},{"type":"Feature","properties":{"zh":"乔治敦","ru":"Джорджтаун","r":3,"cap":0,"ruflag":0},"geometry":{"type":"Point","coordinates":[-58.17,6.8]}},{"type":"Feature","properties":{"zh":"雷克雅未克","ru":"Рейкьявик","r":3,"cap":0,"ruflag":0},"geometry":{"type":"Point","coordinates":[-21.94,64.14]}},{"type":"Feature","properties":{"zh":"太子港","ru":"Порт-о-Пренс","r":3,"cap":0,"ruflag":0},"geometry":{"type":"Point","coordinates":[-72.34,18.54]}},{"type":"Feature","properties":{"zh":"坎帕拉","ru":"Кампала","r":3,"cap":0,"ruflag":0},"geometry":{"type":"Point","coordinates":[32.58,0.32]}},{"type":"Feature","properties":{"zh":"帕拉马里博","ru":"Парамарибо","r":3,"cap":0,"ruflag":0},"geometry":{"type":"Point","coordinates":[-55.17,5.84]}},{"type":"Feature","properties":{"zh":"尼亚美","ru":"Ниамей","r":3,"cap":0,"ruflag":0},"geometry":{"type":"Point","coordinates":[2.11,13.52]}},{"type":"Feature","properties":{"zh":"杜尚别","ru":"Душанбе","r":3,"cap":0,"ruflag":0},"geometry":{"type":"Point","coordinates":[68.77,38.56]}},{"type":"Feature","properties":{"zh":"亚松森","ru":"Асунсьон","r":3,"cap":0,"ruflag":0},"geometry":{"type":"Point","coordinates":[-57.63,-25.29]}},{"type":"Feature","properties":{"zh":"馬拿瓜","ru":"Манагуа","r":3,"cap":0,"ruflag":0},"geometry":{"type":"Point","coordinates":[-86.27,12.15]}},{"type":"Feature","properties":{"zh":"弗里敦","ru":"Фритаун","r":3,"cap":0,"ruflag":0},"geometry":{"type":"Point","coordinates":[-13.24,8.47]}},{"type":"Feature","properties":{"zh":"伊斯兰堡","ru":"Исламабад","r":3,"cap":0,"ruflag":0},"geometry":{"type":"Point","coordinates":[73.08,33.69]}},{"type":"Feature","properties":{"zh":"加德满都","ru":"Катманду","r":3,"cap":0,"ruflag":0},"geometry":{"type":"Point","coordinates":[85.31,27.72]}},{"type":"Feature","properties":{"zh":"布隆方丹","ru":"Блумфонтейн","r":3,"cap":0,"ruflag":0},"geometry":{"type":"Point","coordinates":[26.23,-29.12]}},{"type":"Feature","properties":{"zh":"比勒陀利亚","ru":"Претория","r":3,"cap":0,"ruflag":0},"geometry":{"type":"Point","coordinates":[28.23,-25.7]}},{"type":"Feature","properties":{"zh":"莫尔兹比港","ru":"Порт-Морсби","r":3,"cap":0,"ruflag":0},"geometry":{"type":"Point","coordinates":[147.19,-9.46]}},{"type":"Feature","properties":{"zh":"霍尼亚拉","ru":"Хониара","r":3,"cap":0,"ruflag":0},"geometry":{"type":"Point","coordinates":[159.95,-9.44]}},{"type":"Feature","properties":{"zh":"巴拿马城","ru":"Панама","r":3,"cap":0,"ruflag":0},"geometry":{"type":"Point","coordinates":[-79.53,8.97]}},{"type":"Feature","properties":{"zh":"拉巴特","ru":"Рабат","r":3,"cap":0,"ruflag":0},"geometry":{"type":"Point","coordinates":[-6.84,34.03]}},{"type":"Feature","properties":{"zh":"基希讷乌","ru":"Кишинёв","r":3,"cap":0,"ruflag":0},"geometry":{"type":"Point","coordinates":[28.86,47.01]}},{"type":"Feature","properties":{"zh":"马普托","ru":"Мапуту","r":3,"cap":0,"ruflag":0},"geometry":{"type":"Point","coordinates":[32.59,-25.95]}},{"type":"Feature","properties":{"zh":"摩加迪休","ru":"Могадишо","r":3,"cap":0,"ruflag":0},"geometry":{"type":"Point","coordinates":[45.36,2.07]}},{"type":"Feature","properties":{"zh":"马斯喀特","ru":"Маскат","r":3,"cap":0,"ruflag":0},"geometry":{"type":"Point","coordinates":[58.38,23.59]}},{"type":"Feature","properties":{"zh":"科伦坡","ru":"Коломбо","r":3,"cap":0,"ruflag":0},"geometry":{"type":"Point","coordinates":[79.86,6.93]}},{"type":"Feature","properties":{"zh":"乌兰巴托","ru":"Улан-Батор","r":3,"cap":0,"ruflag":0},"geometry":{"type":"Point","coordinates":[106.91,47.92]}},{"type":"Feature","properties":{"zh":"温得和克","ru":"Виндхук","r":3,"cap":0,"ruflag":0},"geometry":{"type":"Point","coordinates":[17.08,-22.57]}},{"type":"Feature","properties":{"zh":"阿布贾","ru":"Абуджа","r":3,"cap":0,"ruflag":0},"geometry":{"type":"Point","coordinates":[7.49,9.05]}},{"type":"Feature","properties":{"zh":"比绍","ru":"Бисау","r":3,"cap":0,"ruflag":0},"geometry":{"type":"Point","coordinates":[-15.6,11.87]}},{"type":"Feature","properties":{"zh":"安曼","ru":"Амман","r":3,"cap":0,"ruflag":0},"geometry":{"type":"Point","coordinates":[35.93,31.95]}},{"type":"Feature","properties":{"zh":"维尔纽斯","ru":"Вильнюс","r":3,"cap":0,"ruflag":0},"geometry":{"type":"Point","coordinates":[25.32,54.68]}},{"type":"Feature","properties":{"zh":"里加","ru":"Рига","r":3,"cap":0,"ruflag":0},"geometry":{"type":"Point","coordinates":[24.1,56.95]}},{"type":"Feature","properties":{"zh":"比什凯克","ru":"Бишкек","r":3,"cap":0,"ruflag":0},"geometry":{"type":"Point","coordinates":[74.58,42.88]}},{"type":"Feature","properties":{"zh":"马塞卢","ru":"Масеру","r":3,"cap":0,"ruflag":0},"geometry":{"type":"Point","coordinates":[27.48,-29.32]}},{"type":"Feature","properties":{"zh":"塔那那利佛","ru":"Антананариву","r":3,"cap":0,"ruflag":0},"geometry":{"type":"Point","coordinates":[47.51,-18.91]}},{"type":"Feature","properties":{"zh":"基多","ru":"Кито","r":3,"cap":0,"ruflag":0},"geometry":{"type":"Point","coordinates":[-78.5,-0.21]}},{"type":"Feature","properties":{"zh":"圣荷西","ru":"Сан-Хосе","r":3,"cap":0,"ruflag":0},"geometry":{"type":"Point","coordinates":[-84.08,9.93]}},{"type":"Feature","properties":{"zh":"圣萨尔瓦多","ru":"Сан-Сальвадор","r":3,"cap":0,"ruflag":0},"geometry":{"type":"Point","coordinates":[-89.22,13.7]}},{"type":"Feature","properties":{"zh":"京斯敦","ru":"Кингстон","r":3,"cap":0,"ruflag":0},"geometry":{"type":"Point","coordinates":[-76.77,17.98]}},{"type":"Feature","properties":{"zh":"恩贾梅纳","ru":"Нджамена","r":3,"cap":0,"ruflag":0},"geometry":{"type":"Point","coordinates":[15.05,12.12]}},{"type":"Feature","properties":{"zh":"马拉博","ru":"Малабо","r":3,"cap":0,"ruflag":0},"geometry":{"type":"Point","coordinates":[8.78,3.75]}},{"type":"Feature","properties":{"zh":"阿斯马拉","ru":"Асмэра","r":3,"cap":0,"ruflag":0},"geometry":{"type":"Point","coordinates":[38.93,15.33]}},{"type":"Feature","properties":{"zh":"萨格勒布","ru":"Загреб","r":3,"cap":0,"ruflag":0},"geometry":{"type":"Point","coordinates":[16.0,45.8]}},{"type":"Feature","properties":{"zh":"塔林","ru":"Таллин","r":3,"cap":0,"ruflag":0},"geometry":{"type":"Point","coordinates":[24.73,59.43]}},{"type":"Feature","properties":{"zh":"利隆圭","ru":"Лилонгве","r":3,"cap":0,"ruflag":0},"geometry":{"type":"Point","coordinates":[33.78,-13.98]}},{"type":"Feature","properties":{"zh":"瓜地馬拉","ru":"Гватемала","r":3,"cap":0,"ruflag":0},"geometry":{"type":"Point","coordinates":[-90.53,14.62]}},{"type":"Feature","properties":{"zh":"利伯维尔","ru":"Либревиль","r":3,"cap":0,"ruflag":0},"geometry":{"type":"Point","coordinates":[9.46,0.39]}},{"type":"Feature","properties":{"zh":"苏瓦","ru":"Сува","r":3,"cap":0,"ruflag":0},"geometry":{"type":"Point","coordinates":[178.44,-18.13]}},{"type":"Feature","properties":{"zh":"瓦尔帕莱索","ru":"Вальпараисо","r":3,"cap":0,"ruflag":0},"geometry":{"type":"Point","coordinates":[-71.62,-33.05]}},{"type":"Feature","properties":{"zh":"努瓦克肖特","ru":"Нуакшот","r":3,"cap":0,"ruflag":0},"geometry":{"type":"Point","coordinates":[-15.98,18.09]}},{"type":"Feature","properties":{"zh":"巴马科","ru":"Бамако","r":3,"cap":0,"ruflag":0},"geometry":{"type":"Point","coordinates":[-8.0,12.65]}},{"type":"Feature","properties":{"zh":"贝鲁特","ru":"Бейрут","r":3,"cap":0,"ruflag":0},"geometry":{"type":"Point","coordinates":[35.51,33.87]}},{"type":"Feature","properties":{"zh":"第比利斯","ru":"Тбилиси","r":3,"cap":0,"ruflag":0},"geometry":{"type":"Point","coordinates":[44.79,41.73]}},{"type":"Feature","properties":{"zh":"努尔苏丹","ru":"Нур-Султан","r":3,"cap":0,"ruflag":0},"geometry":{"type":"Point","coordinates":[71.43,51.18]}},{"type":"Feature","properties":{"zh":"万象","ru":"Вьентьян","r":3,"cap":0,"ruflag":0},"geometry":{"type":"Point","coordinates":[102.6,17.97]}},{"type":"Feature","properties":{"zh":"布拉柴维尔","ru":"Браззавиль","r":3,"cap":0,"ruflag":0},"geometry":{"type":"Point","coordinates":[15.28,-4.26]}},{"type":"Feature","properties":{"zh":"科纳克里","ru":"Конакри","r":3,"cap":0,"ruflag":0},"geometry":{"type":"Point","coordinates":[-13.68,9.53]}},{"type":"Feature","properties":{"zh":"亚穆苏克罗","ru":"Ямусукро","r":3,"cap":0,"ruflag":0},"geometry":{"type":"Point","coordinates":[-5.28,6.82]}},{"type":"Feature","properties":{"zh":"渥太华","ru":"Оттава","r":3,"cap":0,"ruflag":0},"geometry":{"type":"Point","coordinates":[-75.7,45.42]}},{"type":"Feature","properties":{"zh":"贝尔格莱德","ru":"Белград","r":3,"cap":0,"ruflag":0},"geometry":{"type":"Point","coordinates":[20.47,44.82]}},{"type":"Feature","properties":{"zh":"斯里巴加湾","ru":"Бандар-Сери-Бегаван","r":3,"cap":0,"ruflag":0},"geometry":{"type":"Point","coordinates":[114.93,4.88]}},{"type":"Feature","properties":{"zh":"苏克雷","ru":"Сукре","r":3,"cap":0,"ruflag":0},"geometry":{"type":"Point","coordinates":[-65.26,-19.04]}},{"type":"Feature","properties":{"zh":"贝尔墨邦","ru":"Бельмопан","r":3,"cap":0,"ruflag":0},"geometry":{"type":"Point","coordinates":[-88.77,17.25]}},{"type":"Feature","properties":{"zh":"班吉","ru":"Банги","r":3,"cap":0,"ruflag":0},"geometry":{"type":"Point","coordinates":[18.56,4.37]}},{"type":"Feature","properties":{"zh":"雅温得","ru":"Яунде","r":3,"cap":0,"ruflag":0},"geometry":{"type":"Point","coordinates":[11.51,3.87]}},{"type":"Feature","properties":{"zh":"地拉那","ru":"Тирана","r":3,"cap":0,"ruflag":0},"geometry":{"type":"Point","coordinates":[19.82,41.33]}},{"type":"Feature","properties":{"zh":"埃里温","ru":"Ереван","r":3,"cap":0,"ruflag":0},"geometry":{"type":"Point","coordinates":[44.51,40.18]}},{"type":"Feature","properties":{"zh":"巴库","ru":"Баку","r":3,"cap":0,"ruflag":0},"geometry":{"type":"Point","coordinates":[49.86,40.4]}},{"type":"Feature","properties":{"zh":"金边","ru":"Пномпень","r":3,"cap":0,"ruflag":0},"geometry":{"type":"Point","coordinates":[104.91,11.55]}},{"type":"Feature","properties":{"zh":"拉巴斯","ru":"Ла-Пас","r":3,"cap":0,"ruflag":0},"geometry":{"type":"Point","coordinates":[-68.15,-16.5]}},{"type":"Feature","properties":{"zh":"科托努","ru":"Котону","r":3,"cap":0,"ruflag":0},"geometry":{"type":"Point","coordinates":[2.4,6.36]}},{"type":"Feature","properties":{"zh":"索非亚","ru":"София","r":3,"cap":0,"ruflag":0},"geometry":{"type":"Point","coordinates":[23.31,42.69]}},{"type":"Feature","properties":{"zh":"明斯克","ru":"Минск","r":3,"cap":0,"ruflag":0},"geometry":{"type":"Point","coordinates":[27.56,53.9]}},{"type":"Feature","properties":{"zh":"廷布","ru":"Тхимпху","r":3,"cap":0,"ruflag":0},"geometry":{"type":"Point","coordinates":[89.64,27.47]}},{"type":"Feature","properties":{"zh":"嘉柏隆里","ru":"Габороне","r":3,"cap":0,"ruflag":0},"geometry":{"type":"Point","coordinates":[25.91,-24.65]}},{"type":"Feature","properties":{"zh":"堪培拉","ru":"Канберра","r":3,"cap":0,"ruflag":0},"geometry":{"type":"Point","coordinates":[149.13,-35.28]}},{"type":"Feature","properties":{"zh":"瓦加杜古","ru":"Уагадугу","r":3,"cap":0,"ruflag":0},"geometry":{"type":"Point","coordinates":[-1.53,12.37]}},{"type":"Feature","properties":{"zh":"萨拉热窝","ru":"Сараево","r":3,"cap":0,"ruflag":0},"geometry":{"type":"Point","coordinates":[18.38,43.85]}},{"type":"Feature","properties":{"zh":"奈比多","ru":"Нейпьидо","r":3,"cap":0,"ruflag":0},"geometry":{"type":"Point","coordinates":[96.12,19.77]}},{"type":"Feature","properties":{"zh":"努库阿洛法","ru":"Нукуалофа","r":3,"cap":0,"ruflag":0},"geometry":{"type":"Point","coordinates":[-175.22,-21.14]}},{"type":"Feature","properties":{"zh":"哈尔格萨","ru":"Харгейса","r":3,"cap":0,"ruflag":0},"geometry":{"type":"Point","coordinates":[44.07,9.56]}},{"type":"Feature","properties":{"zh":"維多利亞","ru":"Виктория","r":3,"cap":0,"ruflag":0},"geometry":{"type":"Point","coordinates":[55.45,-4.62]}},{"type":"Feature","properties":{"zh":"圣多美","ru":"Сан-Томе","r":3,"cap":0,"ruflag":0},"geometry":{"type":"Point","coordinates":[6.73,0.34]}},{"type":"Feature","properties":{"zh":"阿皮亚","ru":"Апиа","r":3,"cap":0,"ruflag":0},"geometry":{"type":"Point","coordinates":[-171.77,-13.84]}},{"type":"Feature","properties":{"zh":"瓦莱塔","ru":"Валлетта","r":3,"cap":0,"ruflag":0},"geometry":{"type":"Point","coordinates":[14.51,35.9]}},{"type":"Feature","properties":{"zh":"马累","ru":"Мале","r":3,"cap":0,"ruflag":0},"geometry":{"type":"Point","coordinates":[73.51,4.17]}},{"type":"Feature","properties":{"zh":"耶路撒冷","ru":"Иерусалим","r":3,"cap":0,"ruflag":0},"geometry":{"type":"Point","coordinates":[35.21,31.78]}},{"type":"Feature","properties":{"zh":"培亞","ru":"Прая","r":3,"cap":0,"ruflag":0},"geometry":{"type":"Point","coordinates":[-23.52,14.92]}},{"type":"Feature","properties":{"zh":"拿骚","ru":"Нассау","r":3,"cap":0,"ruflag":0},"geometry":{"type":"Point","coordinates":[-77.35,25.08]}},{"type":"Feature","properties":{"zh":"尼科西亚","ru":"Никосия","r":3,"cap":0,"ruflag":0},"geometry":{"type":"Point","coordinates":[33.37,35.17]}},{"type":"Feature","properties":{"zh":"惠灵顿","ru":"Веллингтон","r":3,"cap":0,"ruflag":0},"geometry":{"type":"Point","coordinates":[174.78,-41.29]}},{"type":"Feature","properties":{"zh":"河内","ru":"Ханой","r":2,"cap":0,"ruflag":0},"geometry":{"type":"Point","coordinates":[105.85,21.04]}},{"type":"Feature","properties":{"zh":"安卡拉","ru":"Анкара","r":2,"cap":0,"ruflag":0},"geometry":{"type":"Point","coordinates":[32.86,39.93]}},{"type":"Feature","properties":{"zh":"布达佩斯","ru":"Будапешт","r":2,"cap":0,"ruflag":0},"geometry":{"type":"Point","coordinates":[19.08,47.5]}},{"type":"Feature","properties":{"zh":"萨那","ru":"Сана","r":2,"cap":0,"ruflag":0},"geometry":{"type":"Point","coordinates":[44.2,15.36]}},{"type":"Feature","properties":{"zh":"布加勒斯特","ru":"Бухарест","r":2,"cap":0,"ruflag":0},"geometry":{"type":"Point","coordinates":[26.1,44.44]}},{"type":"Feature","properties":{"zh":"大马士革","ru":"Дамаск","r":2,"cap":0,"ruflag":0},"geometry":{"type":"Point","coordinates":[36.3,33.5]}},{"type":"Feature","properties":{"zh":"里斯本","ru":"Лиссабон","r":2,"cap":0,"ruflag":0},"geometry":{"type":"Point","coordinates":[-9.15,38.72]}},{"type":"Feature","properties":{"zh":"喀土穆","ru":"Хартум","r":2,"cap":0,"ruflag":0},"geometry":{"type":"Point","coordinates":[32.53,15.59]}},{"type":"Feature","properties":{"zh":"奥斯陆","ru":"Осло","r":2,"cap":0,"ruflag":0},"geometry":{"type":"Point","coordinates":[10.75,59.92]}},{"type":"Feature","properties":{"zh":"华沙","ru":"Варшава","r":2,"cap":0,"ruflag":0},"geometry":{"type":"Point","coordinates":[21.01,52.23]}},{"type":"Feature","properties":{"zh":"平壤","ru":"Пхеньян","r":2,"cap":0,"ruflag":0},"geometry":{"type":"Point","coordinates":[125.75,39.02]}},{"type":"Feature","properties":{"zh":"三蘭港","ru":"Дар-эс-Салам","r":2,"cap":0,"ruflag":0},"geometry":{"type":"Point","coordinates":[39.27,-6.8]}},{"type":"Feature","properties":{"zh":"都柏林","ru":"Дублин","r":2,"cap":0,"ruflag":0},"geometry":{"type":"Point","coordinates":[-6.26,53.35]}},{"type":"Feature","properties":{"zh":"蒙罗维亚","ru":"Монровия","r":2,"cap":0,"ruflag":0},"geometry":{"type":"Point","coordinates":[-10.8,6.31]}},{"type":"Feature","properties":{"zh":"吉隆坡","ru":"Куала-Лумпур","r":2,"cap":0,"ruflag":0},"geometry":{"type":"Point","coordinates":[101.69,3.14]}},{"type":"Feature","properties":{"zh":"哈瓦那","ru":"Гавана","r":2,"cap":0,"ruflag":0},"geometry":{"type":"Point","coordinates":[-82.37,23.13]}},{"type":"Feature","properties":{"zh":"布拉格","ru":"Прага","r":2,"cap":0,"ruflag":0},"geometry":{"type":"Point","coordinates":[14.42,50.09]}},{"type":"Feature","properties":{"zh":"科威特城","ru":"Эль-Кувейт","r":2,"cap":0,"ruflag":0},"geometry":{"type":"Point","coordinates":[47.98,29.37]}},{"type":"Feature","properties":{"zh":"圣多明哥","ru":"Санто-Доминго","r":2,"cap":0,"ruflag":0},"geometry":{"type":"Point","coordinates":[-69.93,18.47]}},{"type":"Feature","properties":{"zh":"阿克拉","ru":"Аккра","r":2,"cap":0,"ruflag":0},"geometry":{"type":"Point","coordinates":[-0.22,5.55]}},{"type":"Feature","properties":{"zh":"的黎波里","ru":"Триполи","r":2,"cap":0,"ruflag":0},"geometry":{"type":"Point","coordinates":[13.18,32.89]}},{"type":"Feature","properties":{"zh":"特拉维夫","ru":"Тель-Авив","r":2,"cap":0,"ruflag":0},"geometry":{"type":"Point","coordinates":[34.77,32.08]}},{"type":"Feature","properties":{"zh":"赫尔辛基","ru":"Хельсинки","r":2,"cap":0,"ruflag":0},"geometry":{"type":"Point","coordinates":[24.93,60.16]}},{"type":"Feature","properties":{"zh":"哥本哈根","ru":"Копенгаген","r":2,"cap":0,"ruflag":0},"geometry":{"type":"Point","coordinates":[12.56,55.68]}},{"type":"Feature","properties":{"zh":"阿比让","ru":"Абиджан","r":2,"cap":0,"ruflag":0},"geometry":{"type":"Point","coordinates":[-4.02,5.32]}},{"type":"Feature","properties":{"zh":"巴西利亚","ru":"Бразилиа","r":2,"cap":0,"ruflag":0},"geometry":{"type":"Point","coordinates":[-47.92,-15.78]}},{"type":"Feature","properties":{"zh":"布鲁塞尔","ru":"Брюссель","r":2,"cap":0,"ruflag":0},"geometry":{"type":"Point","coordinates":[4.33,50.84]}},{"type":"Feature","properties":{"zh":"达卡","ru":"Дакка","r":2,"cap":0,"ruflag":0},"geometry":{"type":"Point","coordinates":[90.41,23.73]}},{"type":"Feature","properties":{"zh":"罗安达","ru":"Луанда","r":2,"cap":0,"ruflag":0},"geometry":{"type":"Point","coordinates":[13.23,-8.84]}},{"type":"Feature","properties":{"zh":"阿尔及尔","ru":"Алжир","r":2,"cap":0,"ruflag":0},"geometry":{"type":"Point","coordinates":[3.05,36.77]}},{"type":"Feature","properties":{"zh":"仰光","ru":"Янгон","r":2,"cap":0,"ruflag":0},"geometry":{"type":"Point","coordinates":[96.16,16.79]}},{"type":"Feature","properties":{"zh":"旧金山","ru":"Сан-Франциско","r":1,"cap":1,"ruflag":0},"geometry":{"type":"Point","coordinates":[-122.4,37.78]}},{"type":"Feature","properties":{"zh":"丹佛","ru":"Денвер","r":1,"cap":1,"ruflag":0},"geometry":{"type":"Point","coordinates":[-104.99,39.74]}},{"type":"Feature","properties":{"zh":"休斯敦","ru":"Хьюстон","r":1,"cap":1,"ruflag":0},"geometry":{"type":"Point","coordinates":[-95.35,29.74]}},{"type":"Feature","properties":{"zh":"迈阿密","ru":"Майами","r":1,"cap":1,"ruflag":0},"geometry":{"type":"Point","coordinates":[-80.23,25.79]}},{"type":"Feature","properties":{"zh":"亚特兰大","ru":"Атланта","r":1,"cap":1,"ruflag":0},"geometry":{"type":"Point","coordinates":[-84.37,33.74]}},{"type":"Feature","properties":{"zh":"芝加哥","ru":"Чикаго","r":1,"cap":1,"ruflag":0},"geometry":{"type":"Point","coordinates":[-87.64,41.85]}},{"type":"Feature","properties":{"zh":"加拉加斯","ru":"Каракас","r":1,"cap":1,"ruflag":0},"geometry":{"type":"Point","coordinates":[-66.92,10.5]}},{"type":"Feature","properties":{"zh":"基辅","ru":"Киев","r":1,"cap":1,"ruflag":0},"geometry":{"type":"Point","coordinates":[30.51,50.44]}},{"type":"Feature","properties":{"zh":"迪拜","ru":"Дубай","r":1,"cap":1,"ruflag":0},"geometry":{"type":"Point","coordinates":[55.29,25.21]}},{"type":"Feature","properties":{"zh":"塔什干","ru":"Ташкент","r":1,"cap":1,"ruflag":0},"geometry":{"type":"Point","coordinates":[69.27,41.3]}},{"type":"Feature","properties":{"zh":"马德里","ru":"Мадрид","r":1,"cap":1,"ruflag":0},"geometry":{"type":"Point","coordinates":[-3.69,40.4]}},{"type":"Feature","properties":{"zh":"日内瓦","ru":"Женева","r":1,"cap":1,"ruflag":0},"geometry":{"type":"Point","coordinates":[6.14,46.21]}},{"type":"Feature","properties":{"zh":"斯德哥尔摩","ru":"Стокгольм","r":1,"cap":1,"ruflag":0},"geometry":{"type":"Point","coordinates":[18.07,59.32]}},{"type":"Feature","properties":{"zh":"曼谷","ru":"Бангкок","r":1,"cap":1,"ruflag":0},"geometry":{"type":"Point","coordinates":[100.51,13.75]}},{"type":"Feature","properties":{"zh":"利马","ru":"Лима","r":1,"cap":1,"ruflag":0},"geometry":{"type":"Point","coordinates":[-77.05,-12.05]}},{"type":"Feature","properties":{"zh":"达喀尔","ru":"Дакар","r":1,"cap":1,"ruflag":0},"geometry":{"type":"Point","coordinates":[-17.48,14.72]}},{"type":"Feature","properties":{"zh":"约翰内斯堡","ru":"Йоханнесбург","r":1,"cap":1,"ruflag":0},"geometry":{"type":"Point","coordinates":[28.03,-26.17]}},{"type":"Feature","properties":{"zh":"阿姆斯特丹","ru":"Амстердам","r":1,"cap":1,"ruflag":0},"geometry":{"type":"Point","coordinates":[4.91,52.35]}},{"type":"Feature","properties":{"zh":"卡萨布兰卡","ru":"Касабланка","r":1,"cap":1,"ruflag":0},"geometry":{"type":"Point","coordinates":[-7.62,33.6]}},{"type":"Feature","properties":{"zh":"首尔","ru":"Сеул","r":1,"cap":1,"ruflag":0},"geometry":{"type":"Point","coordinates":[127.0,37.57]}},{"type":"Feature","properties":{"zh":"马尼拉","ru":"Манила","r":1,"cap":1,"ruflag":0},"geometry":{"type":"Point","coordinates":[120.98,14.61]}},{"type":"Feature","properties":{"zh":"蒙特雷","ru":"Монтеррей","r":1,"cap":1,"ruflag":0},"geometry":{"type":"Point","coordinates":[-100.33,25.67]}},{"type":"Feature","properties":{"zh":"柏林","ru":"Берлин","r":1,"cap":1,"ruflag":0},"geometry":{"type":"Point","coordinates":[13.4,52.52]}},{"type":"Feature","properties":{"zh":"乌鲁木齐","ru":"Урумчи","r":1,"cap":1,"ruflag":0},"geometry":{"type":"Point","coordinates":[87.57,43.81]}},{"type":"Feature","properties":{"zh":"成都","ru":"Чэнду","r":1,"cap":1,"ruflag":0},"geometry":{"type":"Point","coordinates":[104.07,30.67]}},{"type":"Feature","properties":{"zh":"大阪","ru":"Осака","r":1,"cap":1,"ruflag":0},"geometry":{"type":"Point","coordinates":[135.5,34.69]}},{"type":"Feature","properties":{"zh":"金沙萨","ru":"Киншаса","r":1,"cap":1,"ruflag":0},"geometry":{"type":"Point","coordinates":[15.31,-4.33]}},{"type":"Feature","properties":{"zh":"新德里","ru":"Нью-Дели","r":1,"cap":1,"ruflag":0},"geometry":{"type":"Point","coordinates":[77.2,28.6]}},{"type":"Feature","properties":{"zh":"班加罗尔","ru":"Бангалор","r":1,"cap":1,"ruflag":0},"geometry":{"type":"Point","coordinates":[77.56,12.97]}},{"type":"Feature","properties":{"zh":"雅典","ru":"Афины","r":1,"cap":1,"ruflag":0},"geometry":{"type":"Point","coordinates":[23.73,37.99]}},{"type":"Feature","properties":{"zh":"巴格达","ru":"Багдад","r":1,"cap":1,"ruflag":0},"geometry":{"type":"Point","coordinates":[44.39,33.34]}},{"type":"Feature","properties":{"zh":"亚的斯亚贝巴","ru":"Аддис-Абеба","r":1,"cap":1,"ruflag":0},"geometry":{"type":"Point","coordinates":[38.7,9.04]}},{"type":"Feature","properties":{"zh":"德黑兰","ru":"Тегеран","r":1,"cap":1,"ruflag":0},"geometry":{"type":"Point","coordinates":[51.42,35.67]}},{"type":"Feature","properties":{"zh":"温哥华","ru":"Ванкувер","r":1,"cap":1,"ruflag":0},"geometry":{"type":"Point","coordinates":[-123.12,49.28]}},{"type":"Feature","properties":{"zh":"多伦多","ru":"Торонто","r":1,"cap":1,"ruflag":0},"geometry":{"type":"Point","coordinates":[-79.39,43.66]}},{"type":"Feature","properties":{"zh":"布宜诺斯艾利斯","ru":"Буэнос-Айрес","r":1,"cap":1,"ruflag":0},"geometry":{"type":"Point","coordinates":[-58.43,-34.61]}},{"type":"Feature","properties":{"zh":"喀布尔","ru":"Кабул","r":1,"cap":1,"ruflag":0},"geometry":{"type":"Point","coordinates":[69.18,34.52]}},{"type":"Feature","properties":{"zh":"维也纳","ru":"Вена","r":1,"cap":1,"ruflag":0},"geometry":{"type":"Point","coordinates":[16.36,48.2]}},{"type":"Feature","properties":{"zh":"墨尔本","ru":"Мельбурн","r":1,"cap":1,"ruflag":0},"geometry":{"type":"Point","coordinates":[144.97,-37.82]}},{"type":"Feature","properties":{"zh":"台北","ru":"Тайбэй","r":1,"cap":1,"ruflag":0},"geometry":{"type":"Point","coordinates":[121.57,25.04]}},{"type":"Feature","properties":{"zh":"奥克兰都会区","ru":"Окленд","r":1,"cap":1,"ruflag":0},"geometry":{"type":"Point","coordinates":[174.76,-36.85]}},{"type":"Feature","properties":{"zh":"洛杉矶","ru":"Лос-Анджелес","r":0,"cap":1,"ruflag":0},"geometry":{"type":"Point","coordinates":[-118.23,34.05]}},{"type":"Feature","properties":{"zh":"华盛顿哥伦比亚特区","ru":"Вашингтон","r":0,"cap":1,"ruflag":0},"geometry":{"type":"Point","coordinates":[-77.01,38.9]}},{"type":"Feature","properties":{"zh":"纽约","ru":"Нью-Йорк","r":0,"cap":1,"ruflag":0},"geometry":{"type":"Point","coordinates":[-74.0,40.72]}},{"type":"Feature","properties":{"zh":"伦敦","ru":"Лондон","r":0,"cap":1,"ruflag":0},"geometry":{"type":"Point","coordinates":[-0.12,51.5]}},{"type":"Feature","properties":{"zh":"伊斯坦布尔","ru":"Стамбул","r":0,"cap":1,"ruflag":0},"geometry":{"type":"Point","coordinates":[28.97,41.02]}},{"type":"Feature","properties":{"zh":"利雅德","ru":"Эр-Рияд","r":0,"cap":1,"ruflag":0},"geometry":{"type":"Point","coordinates":[46.72,24.63]}},{"type":"Feature","properties":{"zh":"开普敦","ru":"Кейптаун","r":0,"cap":1,"ruflag":0},"geometry":{"type":"Point","coordinates":[18.43,-33.92]}},{"type":"Feature","properties":{"zh":"墨西哥城","ru":"Мехико","r":0,"cap":1,"ruflag":0},"geometry":{"type":"Point","coordinates":[-99.13,19.44]}},{"type":"Feature","properties":{"zh":"拉各斯","ru":"Лагос","r":0,"cap":1,"ruflag":0},"geometry":{"type":"Point","coordinates":[3.39,6.45]}},{"type":"Feature","properties":{"zh":"罗马","ru":"Рим","r":0,"cap":1,"ruflag":0},"geometry":{"type":"Point","coordinates":[12.48,41.9]}},{"type":"Feature","properties":{"zh":"北京","ru":"Пекин","r":0,"cap":1,"ruflag":0},"geometry":{"type":"Point","coordinates":[116.39,39.9]}},{"type":"Feature","properties":{"zh":"内罗毕","ru":"Найроби","r":0,"cap":1,"ruflag":0},"geometry":{"type":"Point","coordinates":[36.81,-1.28]}},{"type":"Feature","properties":{"zh":"雅加达","ru":"Джакарта","r":0,"cap":1,"ruflag":0},"geometry":{"type":"Point","coordinates":[106.83,-6.17]}},{"type":"Feature","properties":{"zh":"波哥大","ru":"Богота","r":0,"cap":1,"ruflag":0},"geometry":{"type":"Point","coordinates":[-74.09,4.6]}},{"type":"Feature","properties":{"zh":"开罗","ru":"Каир","r":0,"cap":1,"ruflag":0},"geometry":{"type":"Point","coordinates":[31.25,30.05]}},{"type":"Feature","properties":{"zh":"上海","ru":"Шанхай","r":0,"cap":1,"ruflag":0},"geometry":{"type":"Point","coordinates":[121.43,31.22]}},{"type":"Feature","properties":{"zh":"东京","ru":"Токио","r":0,"cap":1,"ruflag":0},"geometry":{"type":"Point","coordinates":[139.75,35.69]}},{"type":"Feature","properties":{"zh":"孟买","ru":"Мумбаи","r":0,"cap":1,"ruflag":0},"geometry":{"type":"Point","coordinates":[72.88,19.07]}},{"type":"Feature","properties":{"zh":"巴黎","ru":"Париж","r":0,"cap":1,"ruflag":0},"geometry":{"type":"Point","coordinates":[2.35,48.86]}},{"type":"Feature","properties":{"zh":"圣地亚哥","ru":"Сантьяго","r":0,"cap":1,"ruflag":0},"geometry":{"type":"Point","coordinates":[-70.65,-33.44]}},{"type":"Feature","properties":{"zh":"加尔各答","ru":"Калькутта","r":0,"cap":1,"ruflag":0},"geometry":{"type":"Point","coordinates":[88.37,22.57]}},{"type":"Feature","properties":{"zh":"里约热内卢","ru":"Рио-де-Жанейро","r":0,"cap":1,"ruflag":0},"geometry":{"type":"Point","coordinates":[-43.21,-22.91]}},{"type":"Feature","properties":{"zh":"圣保罗","ru":"Сан-Паулу","r":0,"cap":1,"ruflag":0},"geometry":{"type":"Point","coordinates":[-46.63,-23.56]}},{"type":"Feature","properties":{"zh":"悉尼","ru":"Сидней","r":0,"cap":1,"ruflag":0},"geometry":{"type":"Point","coordinates":[151.21,-33.87]}},{"type":"Feature","properties":{"zh":"新加坡","ru":"Сингапур","r":0,"cap":1,"ruflag":0},"geometry":{"type":"Point","coordinates":[103.85,1.29]}},{"type":"Feature","properties":{"zh":"香港","ru":"Гонконг","r":0,"cap":1,"ruflag":0},"geometry":{"type":"Point","coordinates":[114.18,22.31]}}]}